[{"OBJECT_NAME":"STARLINK-32207","OBJECT_ID":"2024-131E","EPOCH":"2025-12-27T07:24:40.588704","MEAN_MOTION":15.3019339,"ECCENTRICITY":0.0001044,"INCLINATION":53.1602,"RA_OF_ASC_NODE":28.8685,"ARG_OF_PERICENTER":74.5696,"MEAN_ANOMALY":285.542,"EPHEMERIS_TYPE":0,"CLASSIFICATION_TYPE":"U","NORAD_CAT_ID":60259,"ELEMENT_SET_NO":999,"REV_AT_EPOCH":8063,"BSTAR":-1.9198e-5,"MEAN_MOTION_DOT":-9.27e-6,"MEAN_MOTION_DDOT":0},{"OBJECT_NAME":"STARLINK-32125","OBJECT_ID":"2024-131F","EPOCH":"2025-12-27T18:42:34.324416","MEAN_MOTION":15.30685,"ECCENTRICITY":0.0002111,"INCLINATION":53.1603,"RA_OF_ASC_NODE":26.1053,"ARG_OF_PERICENTER":83.7891,"MEAN_ANOMALY":276.335,"EPHEMERIS_TYPE":0,"CLASSIFICATION_TYPE":"U","NORAD_CAT_ID":60260,"ELEMENT_SET_NO":999,"REV_AT_EPOCH":8071,"BSTAR":0.00122,"MEAN_MOTION_DOT":0.00036501,"MEAN_MOTION_DDOT":0},{"OBJECT_NAME":"STARLINK-32160","OBJECT_ID":"2024-131G","EPOCH":"2025-12-27T18:30:38.432160","MEAN_MOTION":15.30193253,"ECCENTRICITY":0.0001021,"INCLINATION":53.1602,"RA_OF_ASC_NODE":26.7602,"ARG_OF_PERICENTER":78.5871,"MEAN_ANOMALY":281.5244,"EPHEMERIS_TYPE":0,"CLASSIFICATION_TYPE":"U","NORAD_CAT_ID":60261,"ELEMENT_SET_NO":999,"REV_AT_EPOCH":8075,"BSTAR":7.887e-6,"MEAN_MOTION_DOT":-1.25e-6,"MEAN_MOTION_DDOT":0},{"OBJECT_NAME":"STARLINK-32163","OBJECT_ID":"2024-131H","EPOCH":"2025-12-27T19:17:35.128320","MEAN_MOTION":15.30190967,"ECCENTRICITY":0.0001268,"INCLINATION":53.1609,"RA_OF_ASC_NODE":26.2564,"ARG_OF_PERICENTER":90.5878,"MEAN_ANOMALY":269.5268,"EPHEMERIS_TYPE":0,"CLASSIFICATION_TYPE":"U","NORAD_CAT_ID":60262,"ELEMENT_SET_NO":999,"REV_AT_EPOCH":8071,"BSTAR":2.5315e-5,"MEAN_MOTION_DOT":3.9e-6,"MEAN_MOTION_DDOT":0},{"OBJECT_NAME":"STARLINK-32148","OBJECT_ID":"2024-131J","EPOCH":"2025-12-27T19:31:14.934720","MEAN_MOTION":15.30209235,"ECCENTRICITY":0.0001357,"INCLINATION":53.1597,"RA_OF_ASC_NODE":26.3144,"ARG_OF_PERICENTER":71.4168,"MEAN_ANOMALY":288.698,"EPHEMERIS_TYPE":0,"CLASSIFICATION_TYPE":"U","NORAD_CAT_ID":60263,"ELEMENT_SET_NO":999,"REV_AT_EPOCH":8076,"BSTAR":0.00010774,"MEAN_MOTION_DOT":2.834e-5,"MEAN_MOTION_DDOT":0},{"OBJECT_NAME":"STARLINK-32121","OBJECT_ID":"2024-131K","EPOCH":"2025-12-27T08:37:26.967360","MEAN_MOTION":15.30194357,"ECCENTRICITY":0.0001074,"INCLINATION":53.1599,"RA_OF_ASC_NODE":28.46,"ARG_OF_PERICENTER":83.2418,"MEAN_ANOMALY":276.8705,"EPHEMERIS_TYPE":0,"CLASSIFICATION_TYPE":"U","NORAD_CAT_ID":60264,"ELEMENT_SET_NO":999,"REV_AT_EPOCH":8069,"BSTAR":-1.6341e-5,"MEAN_MOTION_DOT":-8.43e-6,"MEAN_MOTION_DDOT":0},{"OBJECT_NAME":"STARLINK-32120","OBJECT_ID":"2024-131L","EPOCH":"2025-12-27T18:42:48.216672","MEAN_MOTION":15.30189558,"ECCENTRICITY":0.0001306,"INCLINATION":53.162,"RA_OF_ASC_NODE":26.8158,"ARG_OF_PERICENTER":94.8745,"MEAN_ANOMALY":265.2405,"EPHEMERIS_TYPE":0,"CLASSIFICATION_TYPE":"U","NORAD_CAT_ID":60265,"ELEMENT_SET_NO":999,"REV_AT_EPOCH":8075,"BSTAR":3.3489e-6,"MEAN_MOTION_DOT":-2.6e-6,"MEAN_MOTION_DDOT":0},{"OBJECT_NAME":"STARLINK-32205","OBJECT_ID":"2024-131M","EPOCH":"2025-12-27T05:47:35.276064","MEAN_MOTION":15.30188857,"ECCENTRICITY":9.89e-5,"INCLINATION":53.1599,"RA_OF_ASC_NODE":29.1563,"ARG_OF_PERICENTER":70.28,"MEAN_ANOMALY":289.8307,"EPHEMERIS_TYPE":0,"CLASSIFICATION_TYPE":"U","NORAD_CAT_ID":60266,"ELEMENT_SET_NO":999,"REV_AT_EPOCH":8062,"BSTAR":-4.1751e-5,"MEAN_MOTION_DOT":-1.595e-5,"MEAN_MOTION_DDOT":0},{"OBJECT_NAME":"STARLINK-32158","OBJECT_ID":"2024-131N","EPOCH":"2025-12-27T19:06:56.971008","MEAN_MOTION":15.30188415,"ECCENTRICITY":0.0001353,"INCLINATION":53.1618,"RA_OF_ASC_NODE":26.21,"ARG_OF_PERICENTER":85.4473,"MEAN_ANOMALY":274.6682,"EPHEMERIS_TYPE":0,"CLASSIFICATION_TYPE":"U","NORAD_CAT_ID":60267,"ELEMENT_SET_NO":999,"REV_AT_EPOCH":8061,"BSTAR":1.7607e-5,"MEAN_MOTION_DOT":1.62e-6,"MEAN_MOTION_DDOT":0},{"OBJECT_NAME":"STARLINK-32167","OBJECT_ID":"2024-131P","EPOCH":"2025-12-27T10:55:24.646368","MEAN_MOTION":15.30192702,"ECCENTRICITY":0.0001151,"INCLINATION":53.1603,"RA_OF_ASC_NODE":27.6517,"ARG_OF_PERICENTER":98.2709,"MEAN_ANOMALY":261.8422,"EPHEMERIS_TYPE":0,"CLASSIFICATION_TYPE":"U","NORAD_CAT_ID":60268,"ELEMENT_SET_NO":999,"REV_AT_EPOCH":8066,"BSTAR":4.3313e-6,"MEAN_MOTION_DOT":-2.31e-6,"MEAN_MOTION_DDOT":0},{"OBJECT_NAME":"STARLINK-32144","OBJECT_ID":"2024-131Q","EPOCH":"2025-12-27T19:26:42.118944","MEAN_MOTION":15.30192,"ECCENTRICITY":0.0001267,"INCLINATION":53.1612,"RA_OF_ASC_NODE":26.2956,"ARG_OF_PERICENTER":77.5686,"MEAN_ANOMALY":282.5457,"EPHEMERIS_TYPE":0,"CLASSIFICATION_TYPE":"U","NORAD_CAT_ID":60269,"ELEMENT_SET_NO":999,"REV_AT_EPOCH":8076,"BSTAR":8.2213e-6,"MEAN_MOTION_DOT":-1.16e-6,"MEAN_MOTION_DDOT":0},{"OBJECT_NAME":"STARLINK-32211","OBJECT_ID":"2024-131R","EPOCH":"2025-12-27T18:33:41.014368","MEAN_MOTION":15.3019228,"ECCENTRICITY":0.000115,"INCLINATION":53.161,"RA_OF_ASC_NODE":26.7906,"ARG_OF_PERICENTER":87.8746,"MEAN_ANOMALY":272.2386,"EPHEMERIS_TYPE":0,"CLASSIFICATION_TYPE":"U","NORAD_CAT_ID":60270,"ELEMENT_SET_NO":999,"REV_AT_EPOCH":8070,"BSTAR":2.8169e-5,"MEAN_MOTION_DOT":4.75e-6,"MEAN_MOTION_DDOT":0},{"OBJECT_NAME":"STARLINK-32164","OBJECT_ID":"2024-131S","EPOCH":"2025-12-27T18:39:45.677664","MEAN_MOTION":15.30189487,"ECCENTRICITY":0.0001138,"INCLINATION":53.1617,"RA_OF_ASC_NODE":26.8033,"ARG_OF_PERICENTER":93.0499,"MEAN_ANOMALY":267.0632,"EPHEMERIS_TYPE":0,"CLASSIFICATION_TYPE":"U","NORAD_CAT_ID":60271,"ELEMENT_SET_NO":999,"REV_AT_EPOCH":8060,"BSTAR":1.3194e-5,"MEAN_MOTION_DOT":3.2e-7,"MEAN_MOTION_DDOT":0},{"OBJECT_NAME":"STARLINK-32128","OBJECT_ID":"2024-131T","EPOCH":"2025-12-27T11:12:07.509312","MEAN_MOTION":15.30190437,"ECCENTRICITY":0.0001252,"INCLINATION":53.161,"RA_OF_ASC_NODE":27.7096,"ARG_OF_PERICENTER":93.3923,"MEAN_ANOMALY":266.7221,"EPHEMERIS_TYPE":0,"CLASSIFICATION_TYPE":"U","NORAD_CAT_ID":60272,"ELEMENT_SET_NO":999,"REV_AT_EPOCH":8066,"BSTAR":1.6735e-5,"MEAN_MOTION_DOT":1.36e-6,"MEAN_MOTION_DDOT":0},{"OBJECT_NAME":"STARLINK-32206","OBJECT_ID":"2024-131U","EPOCH":"2025-12-27T09:00:11.982816","MEAN_MOTION":15.30227296,"ECCENTRICITY":0.000119,"INCLINATION":53.1607,"RA_OF_ASC_NODE":28.5693,"ARG_OF_PERICENTER":82.5786,"MEAN_ANOMALY":277.5349,"EPHEMERIS_TYPE":0,"CLASSIFICATION_TYPE":"U","NORAD_CAT_ID":60273,"ELEMENT_SET_NO":999,"REV_AT_EPOCH":8064,"BSTAR":0.00015818,"MEAN_MOTION_DOT":4.332e-5,"MEAN_MOTION_DDOT":0},{"OBJECT_NAME":"STARLINK-32155","OBJECT_ID":"2024-131V","EPOCH":"2025-12-27T11:59:12.187104","MEAN_MOTION":15.30211546,"ECCENTRICITY":0.0001218,"INCLINATION":53.1603,"RA_OF_ASC_NODE":27.9101,"ARG_OF_PERICENTER":92.4335,"MEAN_ANOMALY":267.6806,"EPHEMERIS_TYPE":0,"CLASSIFICATION_TYPE":"U","NORAD_CAT_ID":60274,"ELEMENT_SET_NO":999,"REV_AT_EPOCH":8056,"BSTAR":9.5543e-5,"MEAN_MOTION_DOT":2.472e-5,"MEAN_MOTION_DDOT":0},{"OBJECT_NAME":"STARLINK-32152","OBJECT_ID":"2024-131W","EPOCH":"2025-12-27T11:07:33.745728","MEAN_MOTION":15.30193785,"ECCENTRICITY":0.0001246,"INCLINATION":53.1617,"RA_OF_ASC_NODE":27.685,"ARG_OF_PERICENTER":125.4593,"MEAN_ANOMALY":234.6524,"EPHEMERIS_TYPE":0,"CLASSIFICATION_TYPE":"U","NORAD_CAT_ID":60275,"ELEMENT_SET_NO":999,"REV_AT_EPOCH":8056,"BSTAR":-5.892e-7,"MEAN_MOTION_DOT":-3.77e-6,"MEAN_MOTION_DDOT":0}]
