STARLINK-32207          
1 60259U 24131E   25361.30880311 -.00000927  00000+0 -19198-4 0  9995
2 60259  53.1602  28.8685 0001044  74.5696 285.5420 15.30193390 80631
STARLINK-32125          
1 60260U 24131F   25361.77956394  .00036501  00000+0  12200-2 0  9993
2 60260  53.1603  26.1053 0002111  83.7891 276.3350 15.30685000 80712
STARLINK-32160          
1 60261U 24131G   25361.77127815 -.00000125  00000+0  78870-5 0  9994
2 60261  53.1602  26.7602 0001021  78.5871 281.5244 15.30193253 80755
STARLINK-32163          
1 60262U 24131H   25361.80387880  .00000390  00000+0  25315-4 0  9997
2 60262  53.1609  26.2564 0001268  90.5878 269.5268 15.30190967 80716
STARLINK-32148          
1 60263U 24131J   25361.81336730  .00002834  00000+0  10774-3 0  9994
2 60263  53.1597  26.3144 0001357  71.4168 288.6980 15.30209235 80764
STARLINK-32121          
1 60264U 24131K   25361.35933990 -.00000843  00000+0 -16341-4 0  9992
2 60264  53.1599  28.4600 0001074  83.2418 276.8705 15.30194357 80696
STARLINK-32120          
1 60265U 24131L   25361.77972473 -.00000260  00000+0  33489-5 0  9993
2 60265  53.1620  26.8158 0001306  94.8745 265.2405 15.30189558 80754
STARLINK-32205          
1 60266U 24131M   25361.24138051 -.00001595  00000+0 -41751-4 0  9995
2 60266  53.1599  29.1563 0000989  70.2800 289.8307 15.30188857 80622
STARLINK-32158          
1 60267U 24131N   25361.79649272  .00000162  00000+0  17607-4 0  9998
2 60267  53.1618  26.2100 0001353  85.4473 274.6682 15.30188415 80617
STARLINK-32167          
1 60268U 24131P   25361.45514637 -.00000231  00000+0  43313-5 0  9990
2 60268  53.1603  27.6517 0001151  98.2709 261.8422 15.30192702 80668
STARLINK-32144          
1 60269U 24131Q   25361.81020971 -.00000116  00000+0  82213-5 0  9998
2 60269  53.1612  26.2956 0001267  77.5686 282.5457 15.30192000 80763
STARLINK-32211          
1 60270U 24131R   25361.77339137  .00000475  00000+0  28169-4 0  9998
2 60270  53.1610  26.7906 0001150  87.8746 272.2386 15.30192280 80706
STARLINK-32164          
1 60271U 24131S   25361.77761201  .00000032  00000+0  13194-4 0  9991
2 60271  53.1617  26.8033 0001138  93.0499 267.0632 15.30189487 80606
STARLINK-32128          
1 60272U 24131T   25361.46675358  .00000136  00000+0  16735-4 0  9994
2 60272  53.1610  27.7096 0001252  93.3923 266.7221 15.30190437 80664
STARLINK-32206          
1 60273U 24131U   25361.37513869  .00004332  00000+0  15818-3 0  9995
2 60273  53.1607  28.5693 0001190  82.5786 277.5349 15.30227296 80644
STARLINK-32155          
1 60274U 24131V   25361.49944661  .00002472  00000+0  95543-4 0  9994
2 60274  53.1603  27.9101 0001218  92.4335 267.6806 15.30211546 80569
STARLINK-32152          
1 60275U 24131W   25361.46358502 -.00000377  00000+0 -58920-6 0  9999
2 60275  53.1617  27.6850 0001246 125.4593 234.6524 15.30193785 80562
